[{"OBJECT_NAME":"STARLINK-1225","OBJECT_ID":"2020-012K","EPOCH":"2026-03-09T22:29:34.222560","MEAN_MOTION":15.30176175,"ECCENTRICITY":0.00010251,"INCLINATION":53.1593,"RA_OF_ASC_NODE":38.5192,"ARG_OF_PERICENTER":81.7248,"MEAN_ANOMALY":278.3869,"EPHEMERIS_TYPE":0,"CLASSIFICATION_TYPE":"U","NORAD_CAT_ID":45187,"ELEMENT_SET_NO":999,"REV_AT_EPOCH":33497,"BSTAR":0.0001649413,"MEAN_MOTION_DOT":4.526e-5,"MEAN_MOTION_DDOT":0},{"OBJECT_NAME":"CZ-6A DEB","OBJECT_ID":"2022-151TQ","EPOCH":"2026-03-09T06:57:26.684352","MEAN_MOTION":15.22919125,"ECCENTRICITY":0.00409545,"INCLINATION":98.8216,"RA_OF_ASC_NODE":191.4692,"ARG_OF_PERICENTER":160.8215,"MEAN_ANOMALY":199.457,"EPHEMERIS_TYPE":0,"CLASSIFICATION_TYPE":"U","NORAD_CAT_ID":54975,"ELEMENT_SET_NO":999,"REV_AT_EPOCH":17711,"BSTAR":0.0066825196,"MEAN_MOTION_DOT":0.00163663,"MEAN_MOTION_DDOT":0}]
